GLOBALSTAR M068         
1 32266U 07048D   25221.19972881 -.00000111  00000+0 -41273-4 0  9990
2 32266  51.9877 140.6564 0000555 278.4323 229.0490 12.62826343824544
GLOBALSTAR M079         
1 37188U 10054A   25221.09587917 -.00000098  00000+0  32770-4 0  9995
2 37188  52.0065 338.7251 0000900  91.6972  79.0033 12.62265685683810
GLOBALSTAR M074         
1 37189U 10054B   25221.04368663 -.00000099  00000+0  28517-4 0  9991
2 37189  52.0041 338.2002 0000857 112.2399  59.6168 12.62266782683809
GLOBALSTAR M076         
1 37190U 10054C   25220.74967374 -.00000099  00000+0  25422-4 0  9995
2 37190  52.0054 339.2698 0000995 102.4784  53.3521 12.62264296683418
GLOBALSTAR M077         
1 37191U 10054D   25220.97693377 -.00000070  00000+0  18888-3 0  9996
2 37191  52.0081 295.4473 0000567 118.3312  53.7538 12.62322656683812
GLOBALSTAR M075         
1 37192U 10054E   25220.75102758 -.00000095  00000+0  48245-4 0  9999
2 37192  51.9968  21.4917 0000821  90.8486  11.5061 12.62266523682489
GLOBALSTAR M073         
1 37193U 10054F   25220.76188080 -.00000072  00000+0  17541-3 0  9992
2 37193  52.0068 295.3203 0000662 105.8366  46.2987 12.62261632684479
GLOBALSTAR M083         
1 37739U 11033A   25221.49080355 -.00000105  00000+0 -66319-5 0  9990
2 37739  51.9843 241.7607 0000260  73.9456  90.3231 12.62275028653940
GLOBALSTAR M088         
1 37740U 11033B   25221.22343897 -.00000110  00000+0 -35264-4 0  9996
2 37740  52.0208 148.2426 0000404  36.2741 113.4225 12.62267010649383
GLOBALSTAR M091         
1 37741U 11033C   25221.15917295 -.00000087  00000+0  94715-4 0  9996
2 37741  51.9994 111.8635 0000731  38.3348 120.1569 12.62269637650139
GLOBALSTAR M085         
1 37742U 11033D   25221.06865119 -.00000093  00000+0  62512-4 0  9991
2 37742  52.0129  63.1578 0000839  58.4788 108.7378 12.62263995650868
GLOBALSTAR M081         
1 37743U 11033E   25221.33383166 -.00000082  00000+0  11954-3 0  9990
2 37743  51.9961  65.1439 0000985  68.1582 103.2047 12.62267490650936
GLOBALSTAR M089         
1 37744U 11033F   25220.89651373 -.00000109  00000+0 -30417-4 0  9996
2 37744  51.9949  20.6918 0000981 105.4955  58.7110 12.62265626651346
GLOBALSTAR M084         
1 38040U 11080A   25221.11906466 -.00000085  00000+0  10374-3 0  9991
2 38040  51.9989 247.3328 0000576 136.1823 259.1581 12.62267907629638
GLOBALSTAR M080         
1 38041U 11080B   25221.32334509 -.00000084  00000+0  10814-3 0  9996
2 38041  52.0040 248.3219 0000229 270.6850 102.6468 12.62268131629645
GLOBALSTAR M082         
1 38042U 11080C   25221.20204167 -.00000123  00000+0 -10903-3 0  9994
2 38042  52.0052 204.1548 0000364 331.1184 141.6715 12.62267832630363
GLOBALSTAR M092         
1 38043U 11080D   25220.95094838 -.00000079  00000+0  13667-3 0  9997
2 38043  52.0091 295.3022 0000522 123.7413  46.9811 12.62265553628619
GLOBALSTAR M090         
1 38044U 11080E   25220.96779720 -.00000123  00000+0 -10607-3 0  9991
2 38044  52.0102 198.7212 0000333  32.9378 335.4857 12.62261535630289
GLOBALSTAR M086         
1 38045U 11080F   25221.23241601 -.00000111  00000+0 -41915-4 0  9999
2 38045  51.9874 198.3527 0001348  78.0104 295.6954 12.62275937630369
GLOBALSTAR M097         
1 39072U 13005A   25221.09790601 -.00000097  00000+0  35182-4 0  9993
2 39072  52.0042 113.3653 0000788  53.8011 306.2929 12.62265532577575
GLOBALSTAR M093         
1 39073U 13005B   25221.07162585 -.00000054  00000+0  27541-3 0  9998
2 39073  52.0102 106.6711 0001025  45.6055 314.4896 12.62225800577562
GLOBALSTAR M094         
1 39074U 13005C   25221.15092939 -.00000111  00000+0 -38408-4 0  9993
2 39074  51.9975  20.8577 0000962  76.4978 283.5996 12.62263128579082
GLOBALSTAR M096         
1 39075U 13005D   25221.48074501 -.00000088  00000+0  89031-4 0  9995
2 39075  52.0076  68.4094 0000932  58.1817 301.9140 12.62266154578374
GLOBALSTAR M078         
1 39076U 13005E   25221.05858680 -.00000104  00000+0  13849-5 0  9991
2 39076  51.9862 154.1335 0000762 325.2057  34.8760 12.62259759576801
GLOBALSTAR M095         
1 39077U 13005F   25221.08454903 -.00000109  00000+0 -29128-4 0  9997
2 39077  51.9791 151.2219 0000754   8.0170 352.0709 12.62268446576817
GLOBALSTAR M087         
1 52888U 22064A   25221.17887313 -.00000074  00000+0  16505-3 0  9996
2 52888  52.0002 292.3611 0000370  97.1527 262.9382 12.62300760152060
